[{"OBJECT_NAME":"STARLINK-36406","OBJECT_ID":"2026-036V","EPOCH":"2026-03-09T22:00:01.999584","MEAN_MOTION":15.7314404,"ECCENTRICITY":0.00015438,"INCLINATION":42.9997,"RA_OF_ASC_NODE":248.3001,"ARG_OF_PERICENTER":278.6155,"MEAN_ANOMALY":216.9426,"EPHEMERIS_TYPE":0,"CLASSIFICATION_TYPE":"U","NORAD_CAT_ID":67923,"ELEMENT_SET_NO":999,"REV_AT_EPOCH":368,"BSTAR":-0.01506771,"MEAN_MOTION_DOT":-0.01858786,"MEAN_MOTION_DDOT":0},{"OBJECT_NAME":"OBJECT BA","OBJECT_ID":"2023-091BA","EPOCH":"2026-03-09T22:25:33.906144","MEAN_MOTION":15.62263681,"ECCENTRICITY":0.00034332,"INCLINATION":97.5088,"RA_OF_ASC_NODE":144.8532,"ARG_OF_PERICENTER":52.4079,"MEAN_ANOMALY":307.749,"EPHEMERIS_TYPE":0,"CLASSIFICATION_TYPE":"U","NORAD_CAT_ID":57326,"ELEMENT_SET_NO":999,"REV_AT_EPOCH":14775,"BSTAR":0.001421456,"MEAN_MOTION_DOT":0.0012687,"MEAN_MOTION_DDOT":0}]
